OBJECT_NAME,OBJECT_ID,EPOCH,MEAN_MOTION,ECCENTRICITY,INCLINATION,RA_OF_ASC_NODE,ARG_OF_PERICENTER,MEAN_ANOMALY,EPHEMERIS_TYPE,CLASSIFICATION_TYPE,NORAD_CAT_ID,ELEMENT_SET_NO,REV_AT_EPOCH,BSTAR,MEAN_MOTION_DOT,MEAN_MOTION_DDOT
TIANHUI 5A,2023-168A,2026-05-15T10:52:39.434880,14.87575059,.00015421,97.8208,143.2907,90.0691,270.0703,0,U,58199,999,13773,.3101696E-4,.228E-5,0
TIANHUI 5B,2023-168C,2026-05-15T09:15:47.868480,14.87574872,.00021334,97.8211,143.2291,96.2800,263.8659,0,U,58201,999,13772,.29663212E-4,.215E-5,0
TJS-10,2023-169A,2026-05-15T18:18:57.538944,1.00275036,.0003369,2.4613,80.8535,106.8081,52.9644,0,U,58204,999,921,0,-.237E-5,0
STARLINK-30800,2023-170A,2026-05-16T03:49:05.889216,15.27565830,.00021087,43.0051,173.5658,276.8672,83.1940,0,U,58206,999,14061,-.55656568E-4,-.1793E-4,0
STARLINK-30845,2023-170B,2026-05-16T04:20:28.443264,15.05606150,.00017838,42.9980,188.2015,285.6333,74.4313,0,U,58207,999,14044,.79350382E-3,.11445E-3,0
STARLINK-30841,2023-170C,2026-05-16T03:34:17.322240,15.27587816,.00018812,43.0045,173.4785,271.4811,88.5826,0,U,58208,999,14061,.45626465E-4,.994E-5,0
STARLINK-30839,2023-170D,2026-05-16T04:07:22.569600,15.27582531,.000179,43.0027,172.8083,277.7077,82.3571,0,U,58209,999,14062,.40085293E-4,.841E-5,0
STARLINK-30846,2023-170E,2026-05-14T09:37:57.412416,15.27588793,.00017421,43.0028,183.5983,278.5911,81.4743,0,U,58210,999,14034,.71680093E-4,.1711E-4,0
STARLINK-30838,2023-170F,2026-05-16T02:48:01.560672,15.27584947,.00015526,43.0009,173.2539,272.5129,87.5545,0,U,58211,999,14061,.76383622E-4,.1841E-4,0
STARLINK-30837,2023-170G,2026-05-15T13:47:13.352640,15.27579665,.00017305,43.0034,176.8996,275.6552,84.4102,0,U,58212,999,14052,.53871751E-4,.122E-4,0
STARLINK-30813,2023-170H,2026-05-16T02:53:34.727712,15.27577862,.00015521,43.0003,173.2831,278.1881,81.8795,0,U,58213,999,14061,.24675659E-4,.417E-5,0
STARLINK-30805,2023-170J,2026-05-16T01:02:47.460768,15.27569394,.00018857,43.0007,173.5664,279.3410,80.7228,0,U,58214,999,14060,-.32205516E-4,-.1148E-4,0
STARLINK-30851,2023-170K,2026-05-16T04:16:37.866720,15.27583903,.00015916,43.0018,172.8526,285.7963,74.2713,0,U,58215,999,14062,.14278393E-4,.131E-5,0
STARLINK-30818,2023-170M,2026-05-16T06:00:02.388960,15.27577307,.000113,42.9998,172.5343,279.7193,80.3531,0,U,58217,999,14063,.68725405E-4,.1629E-4,0
STARLINK-30794,2023-170N,2026-05-16T01:04:37.046208,15.27592433,.0001988,43.0015,173.5581,270.2888,89.7736,0,U,58218,999,14060,.10545069E-3,.2642E-4,0
STARLINK-30835,2023-170P,2026-05-16T03:08:22.499808,15.27604427,.00009284,42.9929,173.3555,154.4313,205.6584,0,U,58219,999,14061,.49990184E-3,.1353E-3,0
STARLINK-30792,2023-170Q,2026-05-15T13:41:43.327968,15.06765473,.0004712,42.9985,190.4974,20.4300,339.6732,0,U,58220,999,14036,.56939156E-3,.8414E-4,0
STARLINK-30836,2023-170R,2026-05-16T03:17:37.713984,15.27579391,.00013585,43.0014,173.4060,283.3949,76.6751,0,U,58221,999,14061,.69260175E-4,.1644E-4,0
STARLINK-30855,2023-170S,2026-05-16T03:39:49.976064,15.27579358,.00015018,43.0028,173.4983,268.6794,91.3886,0,U,58222,999,14061,.30042471E-4,.565E-5,0
STARLINK-30840,2023-170T,2026-05-15T02:38:52.727136,15.27579409,.00015066,43.0048,179.4365,276.7103,83.3578,0,U,58223,999,14045,.7250046E-5,-.63E-6,0
STARLINK-30875,2023-170U,2026-05-16T04:20:19.941504,15.27584500,.00018593,43.0009,172.8558,270.8351,89.2288,0,U,58224,999,14062,-.64575963E-4,-.2039E-4,0
STARLINK-30872,2023-170V,2026-05-15T17:54:06.248160,15.27572792,.00013469,43.0045,33.6124,269.6666,90.4031,0,U,58225,999,14222,.61860379E-4,.144E-4,0
STARLINK-30865,2023-170W,2026-05-16T02:49:57.118944,15.27578074,.00012697,43.0031,162.2102,272.8791,87.1915,0,U,58226,999,14074,.31453489E-4,.603E-5,0
STARLINK-30874,2023-170X,2026-05-16T03:23:10.957920,15.27582742,.0001281,43.0011,173.4262,269.7183,90.3522,0,U,58227,999,14061,.5318526E-4,.1202E-4,0
STARLINK-30871,2023-170Y,2026-05-16T03:28:43.861440,15.27576549,.00010509,43.0042,173.4470,266.0924,93.9808,0,U,58228,999,14061,.1566273E-5,-.219E-5,0
STARLINK-30861,2023-171A,2026-05-15T17:20:58.069248,15.27664288,.00062625,42.9940,267.7414,308.9767,51.0526,0,U,58230,999,13997,.96956891E-3,.26596E-3,0
STARLINK-30867,2023-171B,2026-05-15T17:54:46.310976,15.27574711,.00018283,43.0067,266.2239,266.7246,93.3397,0,U,58231,999,13999,-.7001186E-5,-.455E-5,0
STARLINK-30880,2023-171C,2026-05-16T06:22:26.992416,15.27518194,.00011539,43.0031,263.2434,252.9191,107.1534,0,U,58232,999,14007,-.4810139E-3,-.13449E-3,0
STARLINK-30777,2023-171D,2026-05-16T01:23:33.520704,15.27593454,.00014953,43.0062,265.1178,266.9876,93.0805,0,U,58233,999,14003,-.12301048E-3,-.3647E-4,0
STARLINK-30860,2023-171E,2026-05-16T01:34:26.777280,15.27575814,.00016177,43.0062,264.3205,273.1103,86.9564,0,U,58234,999,14004,.312319E-6,-.254E-5,0
