TIANHUI 5A              
1 58199U 23168A   26135.45323420  .00000228  00000+0  31017-4 0  9999
2 58199  97.8208 143.2907 0001542  90.0691 270.0703 14.87575059137732
TIANHUI 5B              
1 58201U 23168C   26135.38597070  .00000215  00000+0  29663-4 0  9999
2 58201  97.8211 143.2291 0002133  96.2800 263.8659 14.87574872137724
TJS-10                  
1 58204U 23169A   26135.76316596 -.00000237  00000+0  00000+0 0  9991
2 58204   2.4613  80.8535 0003369 106.8081  52.9644  1.00275036  9217
STARLINK-30800          
1 58206U 23170A   26136.15909594 -.00001793  00000+0 -55657-4 0  9997
2 58206  43.0051 173.5658 0002108 276.8672  83.1940 15.27565830140619
STARLINK-30845          
1 58207U 23170B   26136.18088476  .00011445  00000+0  79350-3 0  9996
2 58207  42.9980 188.2015 0001783 285.6333  74.4313 15.05606150140444
STARLINK-30841          
1 58208U 23170C   26136.14881160  .00000994  00000+0  45626-4 0  9991
2 58208  43.0045 173.4785 0001881 271.4811  88.5826 15.27587816140617
STARLINK-30839          
1 58209U 23170D   26136.17178900  .00000841  00000+0  40085-4 0  9991
2 58209  43.0027 172.8083 0001790 277.7077  82.3571 15.27582531140623
STARLINK-30846          
1 58210U 23170E   26134.40135894  .00001711  00000+0  71680-4 0  9994
2 58210  43.0028 183.5983 0001742 278.5911  81.4743 15.27588793140343
STARLINK-30838          
1 58211U 23170F   26136.11668473  .00001841  00000+0  76384-4 0  9999
2 58211  43.0009 173.2539 0001552 272.5129  87.5545 15.27584947140614
STARLINK-30837          
1 58212U 23170G   26135.57446010  .00001220  00000+0  53872-4 0  9998
2 58212  43.0034 176.8996 0001730 275.6552  84.4102 15.27579665140527
STARLINK-30813          
1 58213U 23170H   26136.12054083  .00000417  00000+0  24676-4 0  9993
2 58213  43.0003 173.2831 0001552 278.1881  81.8795 15.27577862140614
STARLINK-30805          
1 58214U 23170J   26136.04360487 -.00001148  00000+0 -32206-4 0  9995
2 58214  43.0007 173.5664 0001885 279.3410  80.7228 15.27569394140605
STARLINK-30851          
1 58215U 23170K   26136.17821605  .00000131  00000+0  14278-4 0  9992
2 58215  43.0018 172.8526 0001591 285.7963  74.2713 15.27583903140626
STARLINK-30818          
1 58217U 23170M   26136.25002765  .00001629  00000+0  68725-4 0  9990
2 58217  42.9998 172.5343 0001130 279.7193  80.3531 15.27577307140632
STARLINK-30794          
1 58218U 23170N   26136.04487322  .00002642  00000+0  10545-3 0  9996
2 58218  43.0015 173.5581 0001988 270.2888  89.7736 15.27592433140602
STARLINK-30835          
1 58219U 23170P   26136.13081597  .00013530  00000+0  49990-3 0  9995
2 58219  42.9929 173.3555 0000928 154.4313 205.6584 15.27604427140611
STARLINK-30792          
1 58220U 23170Q   26135.57064037  .00008414  00000+0  56939-3 0  9990
2 58220  42.9985 190.4974 0004712  20.4300 339.6732 15.06765473140364
STARLINK-30836          
1 58221U 23170R   26136.13724206  .00001644  00000+0  69260-4 0  9995
2 58221  43.0014 173.4060 0001358 283.3949  76.6751 15.27579391140611
STARLINK-30855          
1 58222U 23170S   26136.15266176  .00000565  00000+0  30042-4 0  9992
2 58222  43.0028 173.4983 0001501 268.6794  91.3886 15.27579358140611
STARLINK-30840          
1 58223U 23170T   26135.11033249 -.00000063  00000+0  72500-5 0  9991
2 58223  43.0048 179.4365 0001506 276.7103  83.3578 15.27579409140451
STARLINK-30875          
1 58224U 23170U   26136.18078636 -.00002039  00000+0 -64576-4 0  9998
2 58224  43.0009 172.8558 0001859 270.8351  89.2288 15.27584500140621
STARLINK-30872          
1 58225U 23170V   26135.74590565  .00001440  00000+0  61860-4 0  9996
2 58225  43.0045  33.6124 0001346 269.6666  90.4031 15.27572792142229
STARLINK-30865          
1 58226U 23170W   26136.11802221  .00000603  00000+0  31453-4 0  9999
2 58226  43.0031 162.2102 0001269 272.8791  87.1915 15.27578074140747
STARLINK-30874          
1 58227U 23170X   26136.14109905  .00001202  00000+0  53185-4 0  9994
2 58227  43.0011 173.4262 0001281 269.7183  90.3522 15.27582742140614
STARLINK-30871          
1 58228U 23170Y   26136.14495210 -.00000219  00000+0  15663-5 0  9990
2 58228  43.0042 173.4470 0001050 266.0924  93.9808 15.27576549140611
STARLINK-30861          
1 58230U 23171A   26135.72289432  .00026596  00000+0  96957-3 0  9992
2 58230  42.9940 267.7414 0006262 308.9767  51.0526 15.27664288139972
STARLINK-30867          
1 58231U 23171B   26135.74636934 -.00000455  00000+0 -70012-5 0  9992
2 58231  43.0067 266.2239 0001828 266.7246  93.3397 15.27574711139998
STARLINK-30880          
1 58232U 23171C   26136.26559019 -.00013449  00000+0 -48101-3 0  9998
2 58232  43.0031 263.2434 0001153 252.9191 107.1534 15.27518194140072
STARLINK-30777          
1 58233U 23171D   26136.05802686 -.00003647  00000+0 -12301-3 0  9999
2 58233  43.0062 265.1178 0001495 266.9876  93.0805 15.27593454140039
STARLINK-30860          
1 58234U 23171E   26136.06558770 -.00000254  00000+0  31232-6 0  9990
2 58234  43.0062 264.3205 0001617 273.1103  86.9564 15.27575814140045
